{
"type": "FeatureCollection",
"name": "PrimaryCareHomes",
"crs": { "type": "name", "properties": { "name": "urn:ogc:def:crs:OGC:1.3:CRS84" } },
"features": [
{ "type": "Feature", "properties": { "id": 1, "pch_no": 1, "practice_group": "Haxby Group ", "address_01": "Wigginton Group Practice ", "postcode": "YO32 2LL" }, "geometry": { "type": "Point", "coordinates": [ -1.081866364549816, 54.019329499017189 ] } },
{ "type": "Feature", "properties": { "id": 2, "pch_no": 1, "practice_group": "Priory Medical Group ", "address_01": "Victoria Way Surgery ", "postcode": "YO32 9GE" }, "geometry": { "type": "Point", "coordinates": [ -1.064431893139839, 53.979369210118271 ] } },
{ "type": "Feature", "properties": { "id": 3, "pch_no": 1, "practice_group": "Haxby Group ", "address_01": "New Earswick Surgery ", "postcode": "YO32 4AG" }, "geometry": { "type": "Point", "coordinates": [ -1.076508198710665, 53.989726928611724 ] } },
{ "type": "Feature", "properties": { "id": 4, "pch_no": 1, "practice_group": "Haxby Group ", "address_01": "Huntington Surgery ", "postcode": "YO32 9RU" }, "geometry": { "type": "Point", "coordinates": [ -1.055179959091405, 53.998746969550453 ] } },
{ "type": "Feature", "properties": { "id": 5, "pch_no": 1, "practice_group": "Huntington Surgery ", "address_01": null, "postcode": "YO32 9QJ" }, "geometry": { "type": "Point", "coordinates": [ -1.056241895172093, 53.995636463534176 ] } },
{ "type": "Feature", "properties": { "id": 6, "pch_no": 1, "practice_group": "Independent surgeries ", "address_01": "My Health Group ", "postcode": "YO32 5UA" }, "geometry": { "type": "Point", "coordinates": [ -1.034646852951307, 54.038940049150249 ] } },
{ "type": "Feature", "properties": { "id": 7, "pch_no": 1, "practice_group": "Haxby Group ", "address_01": "Stockton-on-the Forest Surgery ", "postcode": "YO32 9UQ" }, "geometry": { "type": "Point", "coordinates": [ -1.004830405245737, 53.993271478090371 ] } },
{ "type": "Feature", "properties": { "id": 8, "pch_no": 2, "practice_group": "York Medical Group ", "address_01": "Waterlane Practice ", "postcode": "YO30 6PS" }, "geometry": { "type": "Point", "coordinates": [ -1.094452664005668, 53.97106947347541 ] } },
{ "type": "Feature", "properties": { "id": 9, "pch_no": 2, "practice_group": "York Medical Group ", "address_01": "32 Clifton ", "postcode": "YO30 6AE" }, "geometry": { "type": "Point", "coordinates": [ -1.091562404921739, 53.96657161733895 ] } },
{ "type": "Feature", "properties": { "id": 10, "pch_no": 2, "practice_group": "Independent surgeries ", "address_01": "Jorvik Gillygate Medical Practice ", "postcode": "YO1 7NP" }, "geometry": { "type": "Point", "coordinates": [ -1.077289308902609, 53.959209518802965 ] } },
{ "type": "Feature", "properties": { "id": 11, "pch_no": 2, "practice_group": "York Medical Group ", "address_01": "Monkgate ", "postcode": "YO31 7PB" }, "geometry": { "type": "Point", "coordinates": [ -1.076387492287238, 53.964155015946929 ] } },
{ "type": "Feature", "properties": { "id": 12, "pch_no": 2, "practice_group": "York Medical Group ", "address_01": "St John University ", "postcode": "YO31 7EX" }, "geometry": { "type": "Point", "coordinates": [ -1.079542789964131, 53.964844339419855 ] } },
{ "type": "Feature", "properties": { "id": 13, "pch_no": 2, "practice_group": "Priory Medical Group ", "address_01": "Rawcliffe Surgery ", "postcode": "YO30 6ND" }, "geometry": { "type": "Point", "coordinates": [ -1.097574139811283, 53.974067989535435 ] } },
{ "type": "Feature", "properties": { "id": 14, "pch_no": 2, "practice_group": "York Medical Group ", "address_01": "Petergate Surgery ", "postcode": "YO30 4RZ" }, "geometry": { "type": "Point", "coordinates": [ -1.099877791417535, 53.985320290261036 ] } },
{ "type": "Feature", "properties": { "id": 15, "pch_no": 3, "practice_group": "Unity Health ", "address_01": "Unity Health ", "postcode": "YO10 4DU" }, "geometry": { "type": "Point", "coordinates": [ -1.075208508692223, 53.946484378932347 ] } },
{ "type": "Feature", "properties": { "id": 16, "pch_no": 3, "practice_group": "Priory Medical Group ", "address_01": "Fulford Surgery ", "postcode": "YO10 4QE" }, "geometry": { "type": "Point", "coordinates": [ -1.075643799939382, 53.937131120174506 ] } },
{ "type": "Feature", "properties": { "id": 17, "pch_no": 3, "practice_group": "Unity Health ", "address_01": "Unity Health ", "postcode": "YO10 3LB" }, "geometry": { "type": "Point", "coordinates": [ -1.036006088914115, 53.954391401364205 ] } },
{ "type": "Feature", "properties": { "id": 18, "pch_no": 3, "practice_group": "Elvington Branch ", "address_01": "York Road ", "postcode": "YO41 4DY" }, "geometry": { "type": "Point", "coordinates": [ -0.94882987112836, 53.924997044391361 ] } },
{ "type": "Feature", "properties": { "id": 19, "pch_no": 3, "practice_group": "Wheldrake Branch ", "address_01": "54a Main Street ", "postcode": "YO19 6AB" }, "geometry": { "type": "Point", "coordinates": [ -0.96591401689971, 53.896122328216236 ] } },
{ "type": "Feature", "properties": { "id": 20, "pch_no": 3, "practice_group": "Dunnington Branch ", "address_01": "35 York St, ", "postcode": "YO19 5NG" }, "geometry": { "type": "Point", "coordinates": [ -0.978130741518225, 53.964231574143632 ] } },
{ "type": "Feature", "properties": { "id": 21, "pch_no": 4, "practice_group": "Priory Medical Group ", "address_01": "Heworth Green Surgery ", "postcode": "YO31 7SX" }, "geometry": { "type": "Point", "coordinates": [ -1.071582003175042, 53.965708877188398 ] } },
{ "type": "Feature", "properties": { "id": 22, "pch_no": 4, "practice_group": "Independent surgeries ", "address_01": "East Parade Medical Practice ", "postcode": "YO31 7YD" }, "geometry": { "type": "Point", "coordinates": [ -1.06183517445961, 53.965992711603256 ] } },
{ "type": "Feature", "properties": { "id": 23, "pch_no": 4, "practice_group": "Priory Medical Group ", "address_01": "Tang Hall Lane Surgery ", "postcode": "YO10 3RL" }, "geometry": { "type": "Point", "coordinates": [ -1.048760206668937, 53.957117562665822 ] } },
{ "type": "Feature", "properties": { "id": 24, "pch_no": 4, "practice_group": "Priory Medical Group ", "address_01": "Park View Surgery ", "postcode": "YO10 3AB" }, "geometry": { "type": "Point", "coordinates": [ -1.056621005898365, 53.954555006145128 ] } },
{ "type": "Feature", "properties": { "id": 25, "pch_no": 4, "practice_group": "Unity Health ", "address_01": "Kimberlow Hill Surgery ", "postcode": "YO10 5LA" }, "geometry": { "type": "Point", "coordinates": [ -1.068128159969372, 53.951067532627505 ] } },
{ "type": "Feature", "properties": { "id": 26, "pch_no": 5, "practice_group": "Old School Medical Practice ", "address_01": "Old School Medical Practice ", "postcode": "YO23 2QG" }, "geometry": { "type": "Point", "coordinates": [ -1.09860538972415, 53.92272688973285 ] } },
{ "type": "Feature", "properties": { "id": 27, "pch_no": 5, "practice_group": "York Medical Group ", "address_01": "Woodthorpe ", "postcode": "YO24 2RQ" }, "geometry": { "type": "Point", "coordinates": [ -1.122831676916299, 53.93584007524241 ] } },
{ "type": "Feature", "properties": { "id": 28, "pch_no": 5, "practice_group": "York Clinic ", "address_01": "York Clinic ", "postcode": "YO24 1ET" }, "geometry": { "type": "Point", "coordinates": [ -1.103353737457222, 53.945592164584262 ] } },
{ "type": "Feature", "properties": { "id": 29, "pch_no": 5, "practice_group": "Haxby Group ", "address_01": "The Old Forge Surgery ", "postcode": "YO26 6EQ" }, "geometry": { "type": "Point", "coordinates": [ -1.153599467561915, 53.980317743251014 ] } },
{ "type": "Feature", "properties": { "id": 30, "pch_no": 5, "practice_group": "York Medical Group ", "address_01": "Skelton Surgery ", "postcode": "YO30 1XX" }, "geometry": { "type": "Point", "coordinates": [ -1.134504992412934, 54.001078836045771 ] } },
{ "type": "Feature", "properties": { "id": 31, "pch_no": 5, "practice_group": "Old School Medical Practice ", "address_01": "Old School Medical Practice ", "postcode": "YO23 3UA" }, "geometry": { "type": "Point", "coordinates": [ -1.142382410039543, 53.916144549207601 ] } },
{ "type": "Feature", "properties": { "id": 32, "pch_no": 5, "practice_group": "Copmanthorpe Surgery ", "address_01": "Copmanthorpe Surgery ", "postcode": "YO23 3GG" }, "geometry": { "type": "Point", "coordinates": [ -1.141450385977999, 53.915562653906804 ] } },
{ "type": "Feature", "properties": { "id": 33, "pch_no": 6, "practice_group": "Priory Medical Group ", "address_01": "Lavender Grove Surgery ", "postcode": "YO26 5RX" }, "geometry": { "type": "Point", "coordinates": [ -1.116124528155801, 53.96418418167152 ] } },
{ "type": "Feature", "properties": { "id": 34, "pch_no": 6, "practice_group": "York Medical Group ", "address_01": "Acomb Surgery ", "postcode": "YO24 4HD" }, "geometry": { "type": "Point", "coordinates": [ -1.11940813864007, 53.955921315796232 ] } },
{ "type": "Feature", "properties": { "id": 35, "pch_no": 6, "practice_group": "Independent surgeries ", "address_01": "Dalton Terrace Surgery ", "postcode": "YO24 4DB" }, "geometry": { "type": "Point", "coordinates": [ -1.096902112603434, 53.952257936469742 ] } },
{ "type": "Feature", "properties": { "id": 36, "pch_no": 6, "practice_group": "Priory Medical Group ", "address_01": "Clementhorpe Health Centre ", "postcode": "YO23 1AP" }, "geometry": { "type": "Point", "coordinates": [ -1.08290730114353, 53.951837363892707 ] } },
{ "type": "Feature", "properties": { "id": 37, "pch_no": 6, "practice_group": "South Bank Medical Centre ", "address_01": "South Bank Medical Centre ", "postcode": "YO23 1PD" }, "geometry": { "type": "Point", "coordinates": [ -1.086696912345569, 53.944379156370154 ] } },
{ "type": "Feature", "properties": { "id": 38, "pch_no": 6, "practice_group": "Priory Medical Group ", "address_01": "Priory Medical Centre ", "postcode": "YO24 3WX" }, "geometry": { "type": "Point", "coordinates": [ -1.129434715192317, 53.94938815864549 ] } },
{ "type": "Feature", "properties": { "id": 39, "pch_no": 6, "practice_group": "Independent surgeries ", "address_01": "Front Street Surgery ", "postcode": "YO24 3BZ" }, "geometry": { "type": "Point", "coordinates": [ -1.126922506652473, 53.954403236232153 ] } },
{ "type": "Feature", "properties": { "id": 40, "pch_no": 6, "practice_group": "Haxby Group ", "address_01": "Gale Farm Surgery ", "postcode": "YO24 3BU" }, "geometry": { "type": "Point", "coordinates": [ -1.131175701324852, 53.95359817361787 ] } },
{ "type": "Feature", "properties": { "id": 41, "pch_no": 7, "practice_group": "Pocklington Group Practice", "address_01": "The Beckside Centre", "postcode": "YO42 2BS" }, "geometry": { "type": "Point", "coordinates": [ -0.781236031375376, 53.924528040088219 ] } }
]
}
