{
"type": "FeatureCollection",
"name": "Primary Care Networks and GP Sites",
"description": "PCNs and GP Sites",
"crs": { "type": "name", "properties": { "name": "urn:ogc:def:crs:OGC:1.3:CRS84" } },
"features": [
{ "type": "Feature", "properties": { "parent_organisation_code": "B82005", "pcn_name": "NIMBUSCARE LTD", "organisation_code": "B82005001", "organisation_name": "Clementhorpe, Cherry Street", "postcode": "YO23 1AP" }, "geometry": { "type": "Point", "coordinates": [ -1.0829073011, 53.9518373642 ] } },
{ "type": "Feature", "properties": { "parent_organisation_code": "B82005", "pcn_name": "NIMBUSCARE LTD", "organisation_code": "B82005002", "organisation_name": "Lavender Grove Surgery", "postcode": "YO26 5RX" }, "geometry": { "type": "Point", "coordinates": [ -1.1161245281, 53.9641841819 ] } },
{ "type": "Feature", "properties": { "parent_organisation_code": "B82005", "pcn_name": "NIMBUSCARE LTD", "organisation_code": "B82005003", "organisation_name": "Rawcliffe Surgery, Water Lane", "postcode": "YO30 6ND" }, "geometry": { "type": "Point", "coordinates": [ -1.0975741398, 53.9740679898 ] } },
{ "type": "Feature", "properties": { "parent_organisation_code": "B82005", "pcn_name": "NIMBUSCARE LTD", "organisation_code": "B82005004", "organisation_name": "Heworth Green", "postcode": "YO31 7SX" }, "geometry": { "type": "Point", "coordinates": [ -1.0715820031, 53.9657088775 ] } },
{ "type": "Feature", "properties": { "parent_organisation_code": "B82005", "pcn_name": "NIMBUSCARE LTD", "organisation_code": "B82005005", "organisation_name": "Fulford Surgery", "postcode": "YO10 4QE" }, "geometry": { "type": "Point", "coordinates": [ -1.0756437999, 53.9371311205 ] } },
{ "type": "Feature", "properties": { "parent_organisation_code": "B82005", "pcn_name": "NIMBUSCARE LTD", "organisation_code": "B82005006", "organisation_name": "Tang Hall Lane Surgery", "postcode": "YO10 3RL" }, "geometry": { "type": "Point", "coordinates": [ -1.0487602066, 53.9571175629 ] } },
{ "type": "Feature", "properties": { "parent_organisation_code": "B82005", "pcn_name": "NIMBUSCARE LTD", "organisation_code": "B82005007", "organisation_name": "Parkview Surgery", "postcode": "YO10 3AB" }, "geometry": { "type": "Point", "coordinates": [ -1.0566210058, 53.9545550064 ] } },
{ "type": "Feature", "properties": { "parent_organisation_code": "B82005", "pcn_name": "NIMBUSCARE LTD", "organisation_code": "B82005008", "organisation_name": "Victoria Way Surgery", "postcode": "YO32 9GE" }, "geometry": { "type": "Point", "coordinates": [ -1.0644318931, 53.9793692104 ] } },
{ "type": "Feature", "properties": { "parent_organisation_code": "B82018", "pcn_name": "Selby Town PCN", "organisation_code": "B82018003", "organisation_name": "North Duffield", "postcode": "YO8 5RG" }, "geometry": { "type": "Point", "coordinates": [ -0.96085801, 53.825071041 ] } },
{ "type": "Feature", "properties": { "parent_organisation_code": "B82026", "pcn_name": "NIMBUSCARE LTD", "organisation_code": "B82026001", "organisation_name": "New Earswick", "postcode": "YO32 4AG" }, "geometry": { "type": "Point", "coordinates": [ -1.0765081987, 53.9897269289 ] } },
{ "type": "Feature", "properties": { "parent_organisation_code": "B82026", "pcn_name": "NIMBUSCARE LTD", "organisation_code": "B82026002", "organisation_name": "Huntington", "postcode": "YO32 9RU" }, "geometry": { "type": "Point", "coordinates": [ -1.055179959, 53.9987469698 ] } },
{ "type": "Feature", "properties": { "parent_organisation_code": "B82026", "pcn_name": "NIMBUSCARE LTD", "organisation_code": "B82026003", "organisation_name": "Stockton On Forest", "postcode": "YO32 9UQ" }, "geometry": { "type": "Point", "coordinates": [ -1.0048304052, 53.9932714784 ] } },
{ "type": "Feature", "properties": { "parent_organisation_code": "B82026", "pcn_name": "NIMBUSCARE LTD", "organisation_code": "B82026004", "organisation_name": "Gale Farm Surgery", "postcode": "YO24 3BU" }, "geometry": { "type": "Point", "coordinates": [ -1.1311757013, 53.9535981739 ] } },
{ "type": "Feature", "properties": { "parent_organisation_code": "B82026", "pcn_name": "NIMBUSCARE LTD", "organisation_code": "B82026005", "organisation_name": "The Old Forge", "postcode": "YO26 6EQ" }, "geometry": { "type": "Point", "coordinates": [ -1.1535994675, 53.9803177435 ] } },
{ "type": "Feature", "properties": { "parent_organisation_code": "B82031", "pcn_name": "Tadcaster & Selby PCN", "organisation_code": "B82031001", "organisation_name": "Church Fenton", "postcode": "LS24 9PR" }, "geometry": { "type": "Point", "coordinates": [ -1.2565266412, 53.8182340891 ] } },
{ "type": "Feature", "properties": { "parent_organisation_code": "B82031", "pcn_name": "Tadcaster & Selby PCN", "organisation_code": "B82031002", "organisation_name": "Ulleskelf", "postcode": "LS24 9DJ" }, "geometry": { "type": "Point", "coordinates": [ -1.2137456413, 53.8551453874 ] } },
{ "type": "Feature", "properties": { "parent_organisation_code": "B82033", "pcn_name": "South Hambleton And Ryedale", "organisation_code": "B82033001", "organisation_name": "Thornton Le Dale", "postcode": "YO18 7RZ" }, "geometry": { "type": "Point", "coordinates": [ -0.7201169222, 54.2372578428 ] } },
{ "type": "Feature", "properties": { "parent_organisation_code": "B82041", "pcn_name": "Selby Town PCN", "organisation_code": "B82041001", "organisation_name": "Carlton", "postcode": "DN14 9LY" }, "geometry": { "type": "Point", "coordinates": [ -1.0203182378, 53.7098007158 ] } },
{ "type": "Feature", "properties": { "parent_organisation_code": "B82047", "pcn_name": "York City Centre PCN", "organisation_code": "B82047001", "organisation_name": "Unity Health", "postcode": "YO10 3LB" }, "geometry": { "type": "Point", "coordinates": [ -1.0360060889, 53.9543914016 ] } },
{ "type": "Feature", "properties": { "parent_organisation_code": "B82047", "pcn_name": "York City Centre PCN", "organisation_code": "B82047002", "organisation_name": "Unity Health", "postcode": "YO10 5DD" }, "geometry": { "type": "Point", "coordinates": [ -1.0535444516, 53.9484189072 ] } },
{ "type": "Feature", "properties": { "parent_organisation_code": "B82071", "pcn_name": "NIMBUSCARE LTD", "organisation_code": "B82071001", "organisation_name": "Bishopthorpe", "postcode": "YO23 2QG" }, "geometry": { "type": "Point", "coordinates": [ -1.0986053897, 53.92272689 ] } },
{ "type": "Feature", "properties": { "parent_organisation_code": "B82073", "pcn_name": "Tadcaster & Selby PCN", "organisation_code": "B82073001", "organisation_name": "Thorpe Willoughby", "postcode": "YO8 9NA" }, "geometry": { "type": "Point", "coordinates": [ -1.1248579319, 53.7710923566 ] } },
{ "type": "Feature", "properties": { "parent_organisation_code": "B82073", "pcn_name": "Tadcaster & Selby PCN", "organisation_code": "B82073002", "organisation_name": "Micklefield", "postcode": "LS25 4AR" }, "geometry": { "type": "Point", "coordinates": [ -1.3325342611, 53.7953028145 ] } },
{ "type": "Feature", "properties": { "parent_organisation_code": "B82074", "pcn_name": "Selby Town PCN", "organisation_code": "B82074002", "organisation_name": "Hemingbrough", "postcode": "YO8 6QF" }, "geometry": { "type": "Point", "coordinates": [ -0.9789401021, 53.7705499281 ] } },
{ "type": "Feature", "properties": { "parent_organisation_code": "B82080", "pcn_name": "NIMBUSCARE LTD", "organisation_code": "B82080001", "organisation_name": "Stamford Bridge", "postcode": "YO41 1BR" }, "geometry": { "type": "Point", "coordinates": [ -0.9144721175, 53.9902065285 ] } },
{ "type": "Feature", "properties": { "parent_organisation_code": "B82080", "pcn_name": "NIMBUSCARE LTD", "organisation_code": "B82080002", "organisation_name": "Huntington Surgery", "postcode": "YO32 9QJ" }, "geometry": { "type": "Point", "coordinates": [ -1.0562418951, 53.9956364638 ] } },
{ "type": "Feature", "properties": { "parent_organisation_code": "B82080", "pcn_name": "NIMBUSCARE LTD", "organisation_code": "B82080003", "organisation_name": "Dunnington Surgery", "postcode": "YO19 5NQ" }, "geometry": { "type": "Point", "coordinates": [ -0.9781760322, 53.9661194693 ] } },
{ "type": "Feature", "properties": { "parent_organisation_code": "B82081", "pcn_name": "NIMBUSCARE LTD", "organisation_code": "B82081001", "organisation_name": "Dunnington", "postcode": "YO19 5NG" }, "geometry": { "type": "Point", "coordinates": [ -0.9781307415, 53.9642315744 ] } },
{ "type": "Feature", "properties": { "parent_organisation_code": "B82081", "pcn_name": "NIMBUSCARE LTD", "organisation_code": "B82081002", "organisation_name": "Wheldrake", "postcode": "YO19 6AB" }, "geometry": { "type": "Point", "coordinates": [ -0.9659140169, 53.8961223285 ] } },
{ "type": "Feature", "properties": { "parent_organisation_code": "B82083", "pcn_name": "York Medical Group", "organisation_code": "B82083001", "organisation_name": "Campus Medical Practice", "postcode": "YO31 7EX" }, "geometry": { "type": "Point", "coordinates": [ -1.0795427899, 53.9648443397 ] } },
{ "type": "Feature", "properties": { "parent_organisation_code": "B82083", "pcn_name": "York Medical Group", "organisation_code": "B82083002", "organisation_name": "Monkgate Medical Practice", "postcode": "YO31 7PB" }, "geometry": { "type": "Point", "coordinates": [ -1.0763874922, 53.9641550162 ] } },
{ "type": "Feature", "properties": { "parent_organisation_code": "B82083", "pcn_name": "York Medical Group", "organisation_code": "B82083003", "organisation_name": "Woodthorpe", "postcode": "YO24 2RQ" }, "geometry": { "type": "Point", "coordinates": [ -1.1228316769, 53.9358400755 ] } },
{ "type": "Feature", "properties": { "parent_organisation_code": "B82083", "pcn_name": "York Medical Group", "organisation_code": "B82083004", "organisation_name": "The Surgery", "postcode": "YO30 6AE" }, "geometry": { "type": "Point", "coordinates": [ -1.0915624049, 53.9665716176 ] } },
{ "type": "Feature", "properties": { "parent_organisation_code": "B82083", "pcn_name": "York Medical Group", "organisation_code": "B82083005", "organisation_name": "Minster Health", "postcode": "YO31 7WE" }, "geometry": { "type": "Point", "coordinates": [ -1.0766639985, 53.9640582722 ] } },
{ "type": "Feature", "properties": { "parent_organisation_code": "B82098", "pcn_name": "York City Centre PCN", "organisation_code": "B82098001", "organisation_name": "South Bank Mc", "postcode": "YO23 1PD" }, "geometry": { "type": "Point", "coordinates": [ -1.0866969123, 53.9443791566 ] } },
{ "type": "Feature", "properties": { "parent_organisation_code": "B82098", "pcn_name": "York City Centre PCN", "organisation_code": "B82098002", "organisation_name": "Gillygate Surgery", "postcode": "YO31 7WQ" }, "geometry": { "type": "Point", "coordinates": [ -1.0844009704, 53.963650085 ] } },
{ "type": "Feature", "properties": { "parent_organisation_code": "B82100", "pcn_name": "NIMBUSCARE LTD", "organisation_code": "B82100001", "organisation_name": "Copmanthorpe Branch", "postcode": "YO23 3GG" }, "geometry": { "type": "Point", "coordinates": [ -1.1414503859, 53.9155626542 ] } },
{ "type": "Feature", "properties": { "parent_organisation_code": "B82041", "pcn_name": "Selby Town PCN", "organisation_code": "B82041002", "organisation_name": "Riccall", "postcode": "YO19 6PZ" }, "geometry": { "type": "Point", "coordinates": [ -1.0577974361, 53.831947466 ] } },
{ "type": "Feature", "properties": { "parent_organisation_code": "B82083", "pcn_name": "York Medical Group", "organisation_code": "B82083006", "organisation_name": "Clifton Medical Practice", "postcode": "YO30 6PS" }, "geometry": { "type": "Point", "coordinates": [ -1.094452664, 53.9710694738 ] } },
{ "type": "Feature", "properties": { "parent_organisation_code": "B82083", "pcn_name": "York Medical Group", "organisation_code": "B82083007", "organisation_name": "Petergate Surgery", "postcode": "YO30 4RZ" }, "geometry": { "type": "Point", "coordinates": [ -1.0998777914, 53.9853202905 ] } },
{ "type": "Feature", "properties": { "parent_organisation_code": "B82083", "pcn_name": "York Medical Group", "organisation_code": "B82083008", "organisation_name": "Skelton (formerly B82003001)", "postcode": "YO30 1XX" }, "geometry": { "type": "Point", "coordinates": [ -1.1345049924, 54.0010788363 ] } },
{ "type": "Feature", "properties": { "parent_organisation_code": "B82021", "pcn_name": "York City Centre PCN", "organisation_code": "B82021000", "organisation_name": "Dalton Terrace Surgery", "postcode": "YO24 4DB" }, "geometry": { "type": "Point", "coordinates": [ -1.0969021126, 53.9522579367 ] } },
{ "type": "Feature", "properties": { "parent_organisation_code": "B82077", "pcn_name": "South Hambleton And Ryedale", "organisation_code": "B82077000", "organisation_name": "Kirkbymoorside Surgery", "postcode": "YO62 6AR" }, "geometry": { "type": "Point", "coordinates": [ -0.9339756989, 54.2694027131 ] } },
{ "type": "Feature", "properties": { "parent_organisation_code": "B82619", "pcn_name": "South Hambleton And Ryedale", "organisation_code": "B82619000", "organisation_name": "Terrington Surgery", "postcode": "YO60 6PS" }, "geometry": { "type": "Point", "coordinates": [ -0.9736874963, 54.1288274018 ] } },
{ "type": "Feature", "properties": { "parent_organisation_code": "B82105", "pcn_name": "Tadcaster & Selby PCN", "organisation_code": "B82105000", "organisation_name": "Tadcaster Medical Centre", "postcode": "LS24 8HD" }, "geometry": { "type": "Point", "coordinates": [ -1.2582399355, 53.8854936708 ] } },
{ "type": "Feature", "properties": { "parent_organisation_code": "B81036", "pcn_name": "NIMBUSCARE LTD", "organisation_code": "B81036000", "organisation_name": "Pocklington Group Practice", "postcode": "YO42 2BS" }, "geometry": { "type": "Point", "coordinates": [ -0.7812360313, 53.9245280404 ] } },
{ "type": "Feature", "properties": { "parent_organisation_code": "B82103", "pcn_name": "York City Centre PCN", "organisation_code": "B82103000", "organisation_name": "East Parade Medical Practice", "postcode": "YO31 7YD" }, "geometry": { "type": "Point", "coordinates": [ -1.0618351744, 53.9659927119 ] } },
{ "type": "Feature", "properties": { "parent_organisation_code": "B82068", "pcn_name": "South Hambleton And Ryedale", "organisation_code": "B82068000", "organisation_name": "Helmsley Surgery", "postcode": "YO62 5HD" }, "geometry": { "type": "Point", "coordinates": [ -1.0564181505, 54.2492389323 ] } },
{ "type": "Feature", "properties": { "parent_organisation_code": "B82064", "pcn_name": "South Hambleton And Ryedale", "organisation_code": "B82064000", "organisation_name": "Tollerton Surgery", "postcode": "YO61 1QW" }, "geometry": { "type": "Point", "coordinates": [ -1.2145017705, 54.0710772134 ] } },
{ "type": "Feature", "properties": { "parent_organisation_code": "B82002", "pcn_name": "South Hambleton And Ryedale", "organisation_code": "B82002000", "organisation_name": "Millfield Surgery", "postcode": "YO61 3JR" }, "geometry": { "type": "Point", "coordinates": [ -1.1924962934, 54.1254065022 ] } },
{ "type": "Feature", "properties": { "parent_organisation_code": "B82079", "pcn_name": "South Hambleton And Ryedale", "organisation_code": "B82079000", "organisation_name": "Stillington Surgery", "postcode": "YO61 1LL" }, "geometry": { "type": "Point", "coordinates": [ -1.1089265366, 54.103614803 ] } },
{ "type": "Feature", "properties": { "parent_organisation_code": "B82097", "pcn_name": "Selby Town PCN", "organisation_code": "B82097000", "organisation_name": "Scott Road Medical Centre", "postcode": "YO8 4BL" }, "geometry": { "type": "Point", "coordinates": [ -1.0748302842, 53.7850532435 ] } }
]
}
